FENGYUN 1C DEB          
1 31320U 99025BPY 17332.28820069  .00000701  00000-0  46333-3 0  9995
2 31320  98.2934 341.7546 0127582 180.3756 179.7335 14.00555695541253
